{
  "norad_id": 47837,
  "name": "STARLINK-2427",
  "history": [
    {
      "epoch": "2026-03-28T14:24:39.384576",
      "apogee_km": 548.2300051042239,
      "perigee_km": 546.2188801412867,
      "latitude_deg": -52.78449867848338,
      "longitude_deg": 101.34376064012758,
      "semi_major_axis_km": 6925.361442622755,
      "eccentricity": 0.0001452,
      "inclination_deg": 53.0551,
      "raan_deg": 146.7261,
      "arg_perigee_deg": 99.7446,
      "mean_anomaly_deg": 260.3707,
      "mean_motion_rev_day": 15.06395796
    }
  ]
}